{
  "type": "FeatureCollection",
  "features": [
    {
      "type": "Feature",
      "properties": {
        "norad_id": 34816,
        "name": "COSMOS 2251 DEB",
        "group": "cosmos-2251-debris",
        "lat": 34.577036077751245,
        "lon": 131.20008268063006,
        "alt_km": 1263.3084803739475,
        "timestamp": "2025-12-27T02:10:16.584228+00:00",
        "meta_object_name": "COSMOS 2251 DEB",
        "meta_object_id": "1993-036ABF",
        "meta_epoch": "2025-12-25T01:06:13.254336",
        "meta_mean_motion": 13.58358364,
        "meta_eccentricity": 0.03729236,
        "meta_inclination": 73.8874,
        "meta_ra_of_asc_node": 123.043,
        "meta_arg_of_pericenter": 185.3949,
        "meta_mean_anomaly": 299.3527,
        "meta_ephemeris_type": 0,
        "meta_classification_type": "U",
        "meta_norad_cat_id": 34816,
        "meta_element_set_no": 999,
        "meta_rev_at_epoch": 82950,
        "meta_bstar": 0.0014772062,
        "meta_mean_motion_dot": 1.67e-05,
        "meta_mean_motion_ddot": 0,
        "tle_line1": "1 34816U 93036ABF 25359.04598674  .00001670  00000+0  14772-2 0  9996",
        "tle_line2": "2 34816  73.8874 123.0430 0372923 185.3949 299.3527 13.58358364829506"
      },
      "geometry": {
        "type": "Point",
        "coordinates": [
          131.20008268063006,
          34.577036077751245
        ]
      }
    },
    {
      "type": "Feature",
      "properties": {
        "norad_id": 34818,
        "name": "COSMOS 2251 DEB",
        "group": "cosmos-2251-debris",
        "lat": 70.00493867817012,
        "lon": 38.68051885806064,
        "alt_km": 769.9177735764006,
        "timestamp": "2025-12-27T02:10:16.584238+00:00",
        "meta_object_name": "COSMOS 2251 DEB",
        "meta_object_id": "1993-036ABH",
        "meta_epoch": "2025-12-26T04:41:15.553824",
        "meta_mean_motion": 14.36982494,
        "meta_eccentricity": 0.00246969,
        "meta_inclination": 74.0365,
        "meta_ra_of_asc_node": 272.1995,
        "meta_arg_of_pericenter": 344.861,
        "meta_mean_anomaly": 168.1819,
        "meta_ephemeris_type": 0,
        "meta_classification_type": "U",
        "meta_norad_cat_id": 34818,
        "meta_element_set_no": 999,
        "meta_rev_at_epoch": 87563,
        "meta_bstar": 0.00018428348,
        "meta_mean_motion_dot": 5.22e-06,
        "meta_mean_motion_ddot": 0,
        "tle_line1": "1 34818U 93036ABH 25360.19531891  .00000522  00000+0  18428-3 0  9992",
        "tle_line2": "2 34818  74.0365 272.1995 0024696 344.8610 168.1819 14.36982494875632"
      },
      "geometry": {
        "type": "Point",
        "coordinates": [
          38.68051885806064,
          70.00493867817012
        ]
      }
    },
    {
      "type": "Feature",
      "properties": {
        "norad_id": 34819,
        "name": "COSMOS 2251 DEB",
        "group": "cosmos-2251-debris",
        "lat": -20.682745498540587,
        "lon": 108.85641855072906,
        "alt_km": 691.1793248419108,
        "timestamp": "2025-12-27T02:10:16.584248+00:00",
        "meta_object_name": "COSMOS 2251 DEB",
        "meta_object_id": "1993-036ABJ",
        "meta_epoch": "2025-12-26T16:44:10.271040",
        "meta_mean_motion": 14.6418179,
        "meta_eccentricity": 0.0015129,
        "meta_inclination": 74.0184,
        "meta_ra_of_asc_node": 115.8233,
        "meta_arg_of_pericenter": 211.1605,
        "meta_mean_anomaly": 215.9065,
        "meta_ephemeris_type": 0,
        "meta_classification_type": "U",
        "meta_norad_cat_id": 34819,
        "meta_element_set_no": 999,
        "meta_rev_at_epoch": 88433,
        "meta_bstar": 0.0017257,
        "meta_mean_motion_dot": 9.077e-05,
        "meta_mean_motion_ddot": 0,
        "tle_line1": "1 34819U 93036ABJ 25360.69734110  .00009077  00000+0  17257-2 0  9999",
        "tle_line2": "2 34819  74.0184 115.8233 0015129 211.1605 215.9065 14.64181790884333"
      },
      "geometry": {
        "type": "Point",
        "coordinates": [
          108.85641855072906,
          -20.682745498540587
        ]
      }
    },
    {
      "type": "Feature",
      "properties": {
        "norad_id": 34823,
        "name": "COSMOS 2251 DEB",
        "group": "cosmos-2251-debris",
        "lat": -72.43363929257826,
        "lon": 10.435932853260688,
        "alt_km": 771.3336664925146,
        "timestamp": "2025-12-27T02:10:16.584259+00:00",
        "meta_object_name": "COSMOS 2251 DEB",
        "meta_object_id": "1993-036ABN",
        "meta_epoch": "2025-12-26T15:00:33.676128",
        "meta_mean_motion": 14.55011383,
        "meta_eccentricity": 0.0153663,
        "meta_inclination": 74.0414,
        "meta_ra_of_asc_node": 75.9924,
        "meta_arg_of_pericenter": 157.3083,
        "meta_mean_anomaly": 203.4972,
        "meta_ephemeris_type": 0,
        "meta_classification_type": "U",
        "meta_norad_cat_id": 34823,
        "meta_element_set_no": 999,
        "meta_rev_at_epoch": 88583,
        "meta_bstar": 0.00052189,
        "meta_mean_motion_dot": 2.603e-05,
        "meta_mean_motion_ddot": 0,
        "tle_line1": "1 34823U 93036ABN 25360.62538977  .00002603  00000+0  52189-3 0  9992",
        "tle_line2": "2 34823  74.0414  75.9924 0153663 157.3083 203.4972 14.55011383885839"
      },
      "geometry": {
        "type": "Point",
        "coordinates": [
          10.435932853260688,
          -72.43363929257826
        ]
      }
    },
    {
      "type": "Feature",
      "properties": {
        "norad_id": 34845,
        "name": "COSMOS 2251 DEB",
        "group": "cosmos-2251-debris",
        "lat": 43.42827728313876,
        "lon": -74.16822034915845,
        "alt_km": 748.4931613806357,
        "timestamp": "2025-12-27T02:10:16.584269+00:00",
        "meta_object_name": "COSMOS 2251 DEB",
        "meta_object_id": "1993-036ABP",
        "meta_epoch": "2025-12-24T15:25:52.110336",
        "meta_mean_motion": 14.4588243,
        "meta_eccentricity": 0.00226897,
        "meta_inclination": 74.0249,
        "meta_ra_of_asc_node": 126.132,
        "meta_arg_of_pericenter": 285.329,
        "meta_mean_anomaly": 74.5361,
        "meta_ephemeris_type": 0,
        "meta_classification_type": "U",
        "meta_norad_cat_id": 34845,
        "meta_element_set_no": 999,
        "meta_rev_at_epoch": 87638,
        "meta_bstar": 0.00029040944,
        "meta_mean_motion_dot": 1.008e-05,
        "meta_mean_motion_ddot": 0,
        "tle_line1": "1 34845U 93036ABP 25358.64296424  .00001008  00000+0  29041-3 0  9992",
        "tle_line2": "2 34845  74.0249 126.1320 0022689 285.3290  74.5361 14.45882430876380"
      },
      "geometry": {
        "type": "Point",
        "coordinates": [
          -74.16822034915845,
          43.42827728313876
        ]
      }
    },
    {
      "type": "Feature",
      "properties": {
        "norad_id": 34846,
        "name": "COSMOS 2251 DEB",
        "group": "cosmos-2251-debris",
        "lat": 33.59790328366999,
        "lon": 43.970353714138916,
        "alt_km": 748.9134086673648,
        "timestamp": "2025-12-27T02:10:16.584280+00:00",
        "meta_object_name": "COSMOS 2251 DEB",
        "meta_object_id": "1993-036ABQ",
        "meta_epoch": "2025-12-26T18:52:01.624224",
        "meta_mean_motion": 14.47289695,
        "meta_eccentricity": 0.0026225,
        "meta_inclination": 74.0297,
        "meta_ra_of_asc_node": 235.5067,
        "meta_arg_of_pericenter": 300.1702,
        "meta_mean_anomaly": 59.6859,
        "meta_ephemeris_type": 0,
        "meta_classification_type": "U",
        "meta_norad_cat_id": 34846,
        "meta_element_set_no": 999,
        "meta_rev_at_epoch": 87607,
        "meta_bstar": 0.00070977,
        "meta_mean_motion_dot": 2.582e-05,
        "meta_mean_motion_ddot": 0,
        "tle_line1": "1 34846U 93036ABQ 25360.78612991  .00002582  00000+0  70977-3 0  9994",
        "tle_line2": "2 34846  74.0297 235.5067 0026225 300.1702  59.6859 14.47289695876079"
      },
      "geometry": {
        "type": "Point",
        "coordinates": [
          43.970353714138916,
          33.59790328366999
        ]
      }
    },
    {
      "type": "Feature",
      "properties": {
        "norad_id": 34852,
        "name": "COSMOS 2251 DEB",
        "group": "cosmos-2251-debris",
        "lat": 40.34518015112326,
        "lon": -109.34245878694256,
        "alt_km": 759.9307437641419,
        "timestamp": "2025-12-27T02:10:16.584290+00:00",
        "meta_object_name": "COSMOS 2251 DEB",
        "meta_object_id": "1993-036ABW",
        "meta_epoch": "2025-12-24T08:48:51.292512",
        "meta_mean_motion": 14.37013481,
        "meta_eccentricity": 0.00167051,
        "meta_inclination": 74.0323,
        "meta_ra_of_asc_node": 241.5883,
        "meta_arg_of_pericenter": 342.3569,
        "meta_mean_anomaly": 17.7002,
        "meta_ephemeris_type": 0,
        "meta_classification_type": "U",
        "meta_norad_cat_id": 34852,
        "meta_element_set_no": 999,
        "meta_rev_at_epoch": 87701,
        "meta_bstar": 0.00010991472,
        "meta_mean_motion_dot": 3e-06,
        "meta_mean_motion_ddot": 0,
        "tle_line1": "1 34852U 93036ABW 25358.36726033  .00000300  00000+0  10991-3 0  9991",
        "tle_line2": "2 34852  74.0323 241.5883 0016705 342.3569  17.7002 14.37013481877017"
      },
      "geometry": {
        "type": "Point",
        "coordinates": [
          -109.34245878694256,
          40.34518015112326
        ]
      }
    }
  ]
}